ORBCOMM FM37            
1 33064U 08031E   24176.55523051  .00001420  00000+0  23010-3 0  9999
2 33064  48.4405 240.0867 0006715 285.1513 220.1537 14.76700577861137
ORBCOMM FM40            
1 33065U 08031F   24176.50941153  .00001843  00000+0  28088-3 0  9991
2 33065  48.4412 229.2323 0008081 293.9687 206.7626 14.78081997861172
VESSELSAT 1             
1 37840U 11058C   24176.11974708  .00000368  00000+0  56346-4 0  9998
2 37840  19.9617 100.2593 0013659 207.7082 152.2595 14.11167908655662
ORBCOMM FM107           
1 40087U 14040B   24176.32956653  .00000986  00000+0  25549-3 0  9997
2 40087  47.0058 265.6936 0000313  37.9196 322.1711 14.56772821528931
ORBCOMM FM111           
1 40089U 14040D   24176.86730464  .00002120  00000+0  28754-3 0  9991
2 40089  47.0053   8.5560 0033524 284.5910  75.1269 14.82084364537142
ORBCOMM FM104           
1 40090U 14040E   24176.41561333  .00000765  00000+0  21328-3 0  9994
2 40090  47.0063 294.7077 0016620   7.8074 352.3066 14.55247408528484
